[{"OBJECT_NAME":"TDRS 3","OBJECT_ID":"1988-091B","EPOCH":"2026-03-05T19:09:20.611872","MEAN_MOTION":1.00259845,"ECCENTRICITY":0.00441837,"INCLINATION":12.6797,"RA_OF_ASC_NODE":341.6841,"ARG_OF_PERICENTER":353.3967,"MEAN_ANOMALY":66.2018,"EPHEMERIS_TYPE":0,"CLASSIFICATION_TYPE":"U","NORAD_CAT_ID":19548,"ELEMENT_SET_NO":999,"REV_AT_EPOCH":12435,"BSTAR":0,"MEAN_MOTION_DOT":-3.03e-6,"MEAN_MOTION_DDOT":0},{"OBJECT_NAME":"FLTSATCOM 8 (USA 46)","OBJECT_ID":"1989-077A","EPOCH":"2026-03-05T16:53:38.624064","MEAN_MOTION":1.0026236,"ECCENTRICITY":0.00086202,"INCLINATION":12.4499,"RA_OF_ASC_NODE":351.7827,"ARG_OF_PERICENTER":334.855,"MEAN_ANOMALY":215.6526,"EPHEMERIS_TYPE":0,"CLASSIFICATION_TYPE":"U","NORAD_CAT_ID":20253,"ELEMENT_SET_NO":999,"REV_AT_EPOCH":25952,"BSTAR":0,"MEAN_MOTION_DOT":-3.72e-6,"MEAN_MOTION_DDOT":0},{"OBJECT_NAME":"SKYNET 4C","OBJECT_ID":"1990-079A","EPOCH":"2026-03-05T22:42:35.391744","MEAN_MOTION":1.00271664,"ECCENTRICITY":0.00038395,"INCLINATION":13.3715,"RA_OF_ASC_NODE":350.5174,"ARG_OF_PERICENTER":344.519,"MEAN_ANOMALY":202.6335,"EPHEMERIS_TYPE":0,"CLASSIFICATION_TYPE":"U","NORAD_CAT_ID":20776,"ELEMENT_SET_NO":999,"REV_AT_EPOCH":12985,"BSTAR":0,"MEAN_MOTION_DOT":1.23e-6,"MEAN_MOTION_DDOT":0},{"OBJECT_NAME":"TDRS 5","OBJECT_ID":"1991-054B","EPOCH":"2026-03-05T16:45:56.913696","MEAN_MOTION":1.00267149,"ECCENTRICITY":0.00106311,"INCLINATION":14.0839,"RA_OF_ASC_NODE":354.5436,"ARG_OF_PERICENTER":277.9523,"MEAN_ANOMALY":334.8614,"EPHEMERIS_TYPE":0,"CLASSIFICATION_TYPE":"U","NORAD_CAT_ID":21639,"ELEMENT_SET_NO":999,"REV_AT_EPOCH":12667,"BSTAR":0,"MEAN_MOTION_DOT":8.0e-7,"MEAN_MOTION_DDOT":0},{"OBJECT_NAME":"TDRS 6","OBJECT_ID":"1993-003B","EPOCH":"2026-03-06T05:48:03.284352","MEAN_MOTION":1.00278079,"ECCENTRICITY":0.00054994,"INCLINATION":14.1809,"RA_OF_ASC_NODE":357.8214,"ARG_OF_PERICENTER":200.3379,"MEAN_ANOMALY":6.8844,"EPHEMERIS_TYPE":0,"CLASSIFICATION_TYPE":"U","NORAD_CAT_ID":22314,"ELEMENT_SET_NO":999,"REV_AT_EPOCH":12137,"BSTAR":0,"MEAN_MOTION_DOT":-2.98e-6,"MEAN_MOTION_DDOT":0},{"OBJECT_NAME":"UFO 2 (USA 95)","OBJECT_ID":"1993-056A","EPOCH":"2026-03-06T00:24:00.660384","MEAN_MOTION":1.00273661,"ECCENTRICITY":0.00088454,"INCLINATION":11.8588,"RA_OF_ASC_NODE":4.1123,"ARG_OF_PERICENTER":336.7899,"MEAN_ANOMALY":217.4974,"EPHEMERIS_TYPE":0,"CLASSIFICATION_TYPE":"U","NORAD_CAT_ID":22787,"ELEMENT_SET_NO":999,"REV_AT_EPOCH":11751,"BSTAR":0,"MEAN_MOTION_DOT":1.22e-6,"MEAN_MOTION_DDOT":0},{"OBJECT_NAME":"USA 99 (MILSTAR-1 1)","OBJECT_ID":"1994-009A","EPOCH":"2026-03-05T20:24:59.901984","MEAN_MOTION":1.00272956,"ECCENTRICITY":0.00042176,"INCLINATION":17.4647,"RA_OF_ASC_NODE":28.8208,"ARG_OF_PERICENTER":308.4264,"MEAN_ANOMALY":42.6072,"EPHEMERIS_TYPE":0,"CLASSIFICATION_TYPE":"U","NORAD_CAT_ID":22988,"ELEMENT_SET_NO":999,"REV_AT_EPOCH":3191,"BSTAR":0,"MEAN_MOTION_DOT":-2.02e-6,"MEAN_MOTION_DDOT":0},{"OBJECT_NAME":"UFO 4 (USA 108)","OBJECT_ID":"1995-003A","EPOCH":"2026-03-06T02:47:46.872672","MEAN_MOTION":1.00273177,"ECCENTRICITY":0.00035922,"INCLINATION":9.6727,"RA_OF_ASC_NODE":13.5636,"ARG_OF_PERICENTER":333.1514,"MEAN_ANOMALY":31.3587,"EPHEMERIS_TYPE":0,"CLASSIFICATION_TYPE":"U","NORAD_CAT_ID":23467,"ELEMENT_SET_NO":999,"REV_AT_EPOCH":11392,"BSTAR":0,"MEAN_MOTION_DOT":-2.5e-7,"MEAN_MOTION_DDOT":0},{"OBJECT_NAME":"TDRS 7","OBJECT_ID":"1995-035B","EPOCH":"2026-03-05T16:49:48.614304","MEAN_MOTION":1.00276158,"ECCENTRICITY":0.0008223,"INCLINATION":13.42,"RA_OF_ASC_NODE":348.8997,"ARG_OF_PERICENTER":47.6107,"MEAN_ANOMALY":108.4062,"EPHEMERIS_TYPE":0,"CLASSIFICATION_TYPE":"U","NORAD_CAT_ID":23613,"ELEMENT_SET_NO":999,"REV_AT_EPOCH":11221,"BSTAR":0,"MEAN_MOTION_DOT":-2.43e-6,"MEAN_MOTION_DDOT":0},{"OBJECT_NAME":"USA 115 (MILSTAR-1 2)","OBJECT_ID":"1995-060A","EPOCH":"2026-03-05T21:59:02.069952","MEAN_MOTION":1.00270812,"ECCENTRICITY":0.0004022,"INCLINATION":14.0355,"RA_OF_ASC_NODE":4.5132,"ARG_OF_PERICENTER":337.9263,"MEAN_ANOMALY":30.9891,"EPHEMERIS_TYPE":0,"CLASSIFICATION_TYPE":"U","NORAD_CAT_ID":23712,"ELEMENT_SET_NO":999,"REV_AT_EPOCH":3185,"BSTAR":0,"MEAN_MOTION_DOT":-2.3e-7,"MEAN_MOTION_DDOT":0},{"OBJECT_NAME":"INMARSAT 3-F1","OBJECT_ID":"1996-020A","EPOCH":"2026-03-06T03:43:48.999936","MEAN_MOTION":0.99997842,"ECCENTRICITY":0.0005965,"INCLINATION":10.3877,"RA_OF_ASC_NODE":47.5673,"ARG_OF_PERICENTER":272.0702,"MEAN_ANOMALY":268.7565,"EPHEMERIS_TYPE":0,"CLASSIFICATION_TYPE":"U","NORAD_CAT_ID":23839,"ELEMENT_SET_NO":999,"REV_AT_EPOCH":10922,"BSTAR":0,"MEAN_MOTION_DOT":-3.0e-8,"MEAN_MOTION_DDOT":0},{"OBJECT_NAME":"INMARSAT 3-F2","OBJECT_ID":"1996-053A","EPOCH":"2026-03-05T23:45:29.361024","MEAN_MOTION":0.99978338,"ECCENTRICITY":0.0006079,"INCLINATION":9.6236,"RA_OF_ASC_NODE":54.9706,"ARG_OF_PERICENTER":294.0319,"MEAN_ANOMALY":64.1512,"EPHEMERIS_TYPE":0,"CLASSIFICATION_TYPE":"U","NORAD_CAT_ID":24307,"ELEMENT_SET_NO":999,"REV_AT_EPOCH":10788,"BSTAR":0,"MEAN_MOTION_DOT":-4.5e-7,"MEAN_MOTION_DDOT":0},{"OBJECT_NAME":"INMARSAT 3-F3","OBJECT_ID":"1996-070A","EPOCH":"2026-03-05T17:55:38.770464","MEAN_MOTION":1.00001363,"ECCENTRICITY":0.0006804,"INCLINATION":10.0955,"RA_OF_ASC_NODE":50.6282,"ARG_OF_PERICENTER":271.8906,"MEAN_ANOMALY":259.8759,"EPHEMERIS_TYPE":0,"CLASSIFICATION_TYPE":"U","NORAD_CAT_ID":24674,"ELEMENT_SET_NO":999,"REV_AT_EPOCH":10687,"BSTAR":0,"MEAN_MOTION_DOT":-2.6e-6,"MEAN_MOTION_DDOT":0},{"OBJECT_NAME":"AMC-3","OBJECT_ID":"1997-050A","EPOCH":"2026-03-03T23:54:38.515968","MEAN_MOTION":1.00271818,"ECCENTRICITY":0.00034833,"INCLINATION":7.8887,"RA_OF_ASC_NODE":65.2783,"ARG_OF_PERICENTER":287.8217,"MEAN_ANOMALY":95.3034,"EPHEMERIS_TYPE":0,"CLASSIFICATION_TYPE":"U","NORAD_CAT_ID":24936,"ELEMENT_SET_NO":999,"REV_AT_EPOCH":5138,"BSTAR":0,"MEAN_MOTION_DOT":-2.71e-6,"MEAN_MOTION_DDOT":0},{"OBJECT_NAME":"USA 134","OBJECT_ID":"1997-065A","EPOCH":"2026-03-05T22:01:16.853952","MEAN_MOTION":1.00271221,"ECCENTRICITY":0.00069058,"INCLINATION":12.6621,"RA_OF_ASC_NODE":22.487,"ARG_OF_PERICENTER":308.6207,"MEAN_ANOMALY":50.7383,"EPHEMERIS_TYPE":0,"CLASSIFICATION_TYPE":"U","NORAD_CAT_ID":25019,"ELEMENT_SET_NO":999,"REV_AT_EPOCH":3191,"BSTAR":0,"MEAN_MOTION_DOT":-6.7e-7,"MEAN_MOTION_DDOT":0},{"OBJECT_NAME":"INMARSAT 3-F5","OBJECT_ID":"1998-006B","EPOCH":"2026-03-05T20:35:10.112352","MEAN_MOTION":1.00276787,"ECCENTRICITY":0.00052719,"INCLINATION":9.4623,"RA_OF_ASC_NODE":54.2704,"ARG_OF_PERICENTER":293.4374,"MEAN_ANOMALY":70.6523,"EPHEMERIS_TYPE":0,"CLASSIFICATION_TYPE":"U","NORAD_CAT_ID":25153,"ELEMENT_SET_NO":999,"REV_AT_EPOCH":10286,"BSTAR":0,"MEAN_MOTION_DOT":-2.94e-6,"MEAN_MOTION_DDOT":0},{"OBJECT_NAME":"ABS-6","OBJECT_ID":"1999-053A","EPOCH":"2026-03-06T06:09:27.533952","MEAN_MOTION":1.00272104,"ECCENTRICITY":0.00030131,"INCLINATION":0.0418,"RA_OF_ASC_NODE":256.3489,"ARG_OF_PERICENTER":70.1507,"MEAN_ANOMALY":88.8657,"EPHEMERIS_TYPE":0,"CLASSIFICATION_TYPE":"U","NORAD_CAT_ID":25924,"ELEMENT_SET_NO":999,"REV_AT_EPOCH":9680,"BSTAR":0,"MEAN_MOTION_DOT":-1.24e-6,"MEAN_MOTION_DDOT":0}]
