TDRS 3                  
1 19548U 88091B   26064.79815523 -.00000303  00000+0  00000+0 0  9996
2 19548  12.6797 341.6841 0044183 353.3967  66.2018  1.00259845124356
FLTSATCOM 8 (USA 46)    
1 20253U 89077A   26064.70391926 -.00000372  00000+0  00000+0 0  9999
2 20253  12.4499 351.7827 0008620 334.8550 215.6526  1.00262360259520
SKYNET 4C               
1 20776U 90079A   26064.94624296  .00000123  00000+0  00000+0 0  9991
2 20776  13.3715 350.5174 0003839 344.5190 202.6335  1.00271664129851
TDRS 5                  
1 21639U 91054B   26064.69857539  .00000080  00000+0  00000+0 0  9996
2 21639  14.0839 354.5436 0010631 277.9523 334.8614  1.00267149126675
TDRS 6                  
1 22314U 93003B   26065.24170468 -.00000298  00000+0  00000+0 0  9996
2 22314  14.1809 357.8214 0005499 200.3379   6.8844  1.00278079121376
UFO 2 (USA 95)          
1 22787U 93056A   26065.01667431  .00000122  00000+0  00000+0 0  9999
2 22787  11.8588   4.1123 0008845 336.7899 217.4974  1.00273661117515
USA 99 (MILSTAR-1 1)    
1 22988U 94009A   26064.85069331 -.00000202  00000+0  00000+0 0  9997
2 22988  17.4647  28.8208 0004217 308.4264  42.6072  1.00272956 31916
UFO 4 (USA 108)         
1 23467U 95003A   26065.11651473 -.00000025  00000+0  00000+0 0  9992
2 23467   9.6727  13.5636 0003592 333.1514  31.3587  1.00273177113929
TDRS 7                  
1 23613U 95035B   26064.70125711 -.00000243  00000+0  00000+0 0  9997
2 23613  13.4200 348.8997 0008223  47.6107 108.4062  1.00276158112213
USA 115 (MILSTAR-1 2)   
1 23712U 95060A   26064.91599618 -.00000023  00000+0  00000+0 0  9995
2 23712  14.0355   4.5132 0004022 337.9263  30.9891  1.00270812 31859
INMARSAT 3-F1           
1 23839U 96020A   26065.15542824 -.00000003  00000+0  00000+0 0  9994
2 23839  10.3877  47.5673 0005965 272.0702 268.7565  0.99997842109220
INMARSAT 3-F2           
1 24307U 96053A   26064.98992316 -.00000045  00000+0  00000+0 0  9992
2 24307   9.6236  54.9706 0006079 294.0319  64.1512  0.99978338107884
INMARSAT 3-F3           
1 24674U 96070A   26064.74697651 -.00000260  00000+0  00000+0 0  9995
2 24674  10.0955  50.6282 0006804 271.8906 259.8759  1.00001363106870
AMC-3                   
1 24936U 97050A   26062.99627912 -.00000271  00000+0  00000+0 0  9995
2 24936   7.8887  65.2783 0003483 287.8217  95.3034  1.00271818 51387
USA 134                 
1 25019U 97065A   26064.91755618 -.00000067  00000+0  00000+0 0  9996
2 25019  12.6621  22.4870 0006905 308.6207  50.7383  1.00271221 31912
INMARSAT 3-F5           
1 25153U 98006B   26064.85775593 -.00000294  00000+0  00000+0 0  9990
2 25153   9.4623  54.2704 0005271 293.4374  70.6523  1.00276787102869
ABS-6                   
1 25924U 99053A   26065.25656868 -.00000124  00000+0  00000+0 0  9999
2 25924   0.0418 256.3489 0003013  70.1507  88.8657  1.00272104 96803
